#cP2017 10  7  0  0  0.00000000      96 ORBIT IGS14 HLM  IGS
## 1969 518400.00000000   900.00000000 58033 0.0000000000000
+   32   G01G02G03G04G05G06G07G08G09G10G11G12G13G14G15G16G17
+        G18G19G20G21G22G23G24G25G26G27G28G29G30G31G32  0  0
+          0  0  0  0  0  0  0  0  0  0  0  0  0  0  0  0  0
+          0  0  0  0  0  0  0  0  0  0  0  0  0  0  0  0  0
+          0  0  0  0  0  0  0  0  0  0  0  0  0  0  0  0  0
++         2  2  2  0  2  2  2  2  2  2  2  2  2  2  2  2  2
++         2  2  2  2  2  2  2  2  2  2  2  2  2  2  2  0  0
++         0  0  0  0  0  0  0  0  0  0  0  0  0  0  0  0  0
++         0  0  0  0  0  0  0  0  0  0  0  0  0  0  0  0  0
++         0  0  0  0  0  0  0  0  0  0  0  0  0  0  0  0  0
%c G  cc GPS ccc cccc cccc cccc cccc ccccc ccccc ccccc ccccc
%c cc cc ccc ccc cccc cccc cccc cccc ccccc ccccc ccccc ccccc
%f  1.2500000  1.025000000  0.00000000000  0.000000000000000
%f  0.0000000  0.000000000  0.00000000000  0.000000000000000
%i    0    0    0    0      0      0      0      0         0
%i    0    0    0    0      0      0      0      0         0
/* RAPID ORBIT COMBINATION FROM WEIGHTED AVERAGE OF:        
/* cod emr esa gfz jpl ngs sio usn whu                      
/* REFERENCED TO IGS TIME (IGST) AND TO WEIGHTED MEAN POLE: 
/* PCV:IGS14_1967 OL/AL:FES2004  NONE     Y  ORB:CMB CLK:CMB
*  2017 10  7 19 30  0.00000000
PG01  -7144.667871  18793.636322 -17345.630258     -3.694752  5  7  4 117       
PG02  21697.800939 -14952.715787   -921.168836    312.037237  3  4  4  66       
PG03   4193.026588  17495.448728 -19568.804764    -58.860714  6  6    101       
PG04 -13895.326257   7512.244002  21101.617496 999999.999999
PG05  16339.089931  -7632.188905  19467.131858    -26.807610  3  5  3 120       
PG06  22700.267815  -4049.574760 -13176.477399    402.933504  6  5  3  87       
PG07   8651.760111  12648.670033  21897.873598    296.281604  6  8  5 115       
PG08  -6589.803620  22876.515475  11718.400486    -76.175381  6  4  3 103       
PG09   8219.939632  23422.989641   9407.603345    454.449248  7  9  5 100       
PG10 -24417.124511 -10317.977485  -2547.963977     83.315888  2  7  7  89       
PG11  -7017.923326  24076.958320  -9482.829471   -719.994308  6  9  5 120       
PG12    512.037268 -16020.207406 -21381.506872    370.050389  7  8  4  86       
PG13  12042.744451 -17431.461790  15921.732027    -92.468446  6  5    118       
PG14 -15058.041713      1.643339 -21598.167598    -85.638606  5  5  4 103       
PG15   3599.912132 -24445.633024   9025.434069   -356.449299  5  8  4  97       
PG16 -16738.520027   5153.841625  19963.642797     36.962397  4  5  3  99       
PG17  13444.367607  10548.783761 -20010.153499   -152.372739  6  7  3 105       
PG18 -19906.917599 -15871.384174   8471.656292    630.953833  8  9  4 103       
PG19  14929.842318    876.403353 -22229.059066   -482.402458  7  5  1  83       
PG20    204.576824 -16521.381823  20648.572813    488.995644  5  6  5 115       
PG21 -12420.501249 -10610.377399  21741.115459   -473.117122  6  7  6 104       
PG22  -4629.459719  15281.730947 -20984.482339   -147.144660  4  6  4 131       
PG23   1690.495364  26267.804821    -14.288131   -217.943675  6  9  7  99       
PG24   9278.601981 -19804.433121 -14978.294309    -40.597273  8  7  2  92       
PG25 -12520.931424 -18017.954220 -15276.536940   -468.834208  6  6  3  74       
PG26 -23103.534717  -1019.327876  13152.364808   -403.922334  1  8  6 122       
PG27 -12457.060709  12835.858576  19498.558352    334.399913  7  3  3  84       
PG28  22130.207791  14659.876238   1268.980992    652.097251  6  8  3  95       
PG29  -3866.075820 -25594.575270   5967.492530    553.945494  9 10  4  81       
PG30  18200.506382   5118.039019  18719.866878    136.126832  3  6  3  89       
PG31 -23806.644897   5829.735662 -10661.219304    170.356762  4  5  5 127       
PG32 -15069.001606  -6668.822336 -20815.016258   -510.268528  7  8  8  99       
*  2017 10  7 19 45  0.00000000
PG01  -8770.249398  19715.385618 -15433.878826     -3.695994  5  6  4 112       
PG02  21636.461749 -14499.858215  -3751.193135    312.029040  4  6  4  96       
PG03   2072.357066  16607.589818 -20649.019365    -58.856537  5  6  2  97       
PG04 -14402.810822   5081.105020  21527.593427 999999.999999
PG05  18262.388961  -6627.398326  18102.882756    -26.806321  3  5  3 123       
PG06  21467.333587  -2964.481226 -15348.750409    402.935779  6  5  3 101       
PG07   6595.043429  13992.505713  21755.705198    296.276931  6  8  5 119       
PG08  -6927.521228  21433.827629  14041.111900    -76.176663  7  4  3 107       
PG09   8055.122799  24373.940695   6772.270621    454.454276  8  9  5 118       
PG10 -24432.417340 -10596.493709    295.632275     83.323998  3  7  7 105       
PG11  -7793.663635  24632.687560  -6973.515382   -719.996275  6  9  5 118       
PG12   2668.681611 -14882.736259 -22021.566851    370.049083  7  7  4  75       
PG13  12132.222853 -15484.956036  17746.017474    -92.468970  6  6  1 116       
PG14 -15076.315731  -2521.005135 -21454.363430    -85.639610  5  6  5 104       
PG15   4124.869553 -23300.424995  11484.637943   -356.449767  5  7  4 105       
PG16 -18626.113313   4002.152278  18548.959843     36.962408  4  5  3 105       
PG17  13440.124546  12826.476106 -18675.585930   -152.370787  7  7  3  98       
PG18 -18836.560460 -15748.198926  10944.100188    630.954712  8  9  4 117       
PG19  14884.732892   3342.079532 -22001.753550   -482.400465  7  5  2  94       
PG20   2516.695314 -15770.167080  21073.846504    488.996415  5  4  5 121       
PG21 -10571.669891 -12048.606918  21969.977694   -473.114057  7  8  5 105       
PG22  -6915.721946  14355.419222 -21012.560991   -147.155969  4  5  4 129       
PG23   1337.142086  26107.227652  -2856.095270   -217.943800  7  9  6  99       
PG24  10696.003014 -20565.870957 -12817.092755    -40.597787  8  7  2 103       
PG25 -10818.461915 -17355.404217 -17220.087330   -468.839872  6  6  2  90       
PG26 -24261.885481  -1774.668096  10779.669445   -403.911827  2  8  7 130       
PG27 -12762.818398  10542.645475  20657.519645    334.403956  7  3  3  90       
PG28  21835.889083  14691.734739   4156.839543    652.099798  7  8  3  97       
PG29  -3692.510291 -26120.345476   3132.179689    553.941415 10 10  4  73       
PG30  16383.748548   6385.018646  19955.000028    136.124842  4  6  3  98       
PG31 -22773.031800   4940.563712 -13047.229870    170.354505  4  4  5 130       
PG32 -15199.263328  -8997.104706 -19827.119789   -510.272815  7  8  8 104       
*  2017 10  7 20  0  0.00000000
PG01 -10164.524357  20579.552536 -13255.619044     -3.697260  4  6  4 108       
PG02  21358.588489 -13830.199471  -6514.785447    312.020470  4  6  4  90       
PG03   -186.871878  15793.558982 -21374.707872    -58.852355  5  7  3  92       
PG04 -15038.519154   2657.733837  21576.177286 999999.999999
PG05  20071.016691  -5782.126056  16426.912239    -26.805203  4  4  3 117       
PG06  20113.016304  -1670.997109 -17256.755735    402.938073  6  6  3 109       
PG07   4637.150680  15422.930957  21244.804001    296.272516  7  8  5 124       
PG08  -7379.935617  19765.260645  16121.730946    -76.178103  7  4  3 104       
PG09   7891.639897  25030.772789   4020.227143    454.459330  8  9  5 116       
PG10 -24164.008547 -10756.118483   3134.183277     83.332109  4  7  6 111       
PG11  -8412.817494  24971.045905  -4346.890177   -719.998001  6  8  5 122       
PG12   4934.372076 -13847.915419 -22289.146724    370.047666  7  6  4  62       
PG13  12331.182287 -13355.217684  19262.606059    -92.469230  6  6  1 117       
PG14 -15221.924556  -4999.236039 -20932.210589    -85.640308  5  7  5 117       
PG15   4760.490702 -21918.349453  13740.334640   -356.449897  5  6  4 101       
PG16 -20412.914333   3040.427239  16816.128616     36.962537  4  5  4 105       
PG17  13544.070786  14926.334562 -17011.628739   -152.368860  8  7  4 108       
PG18 -17515.472719 -15588.173915  13234.870993    630.954787  9  9  3 122       
PG19  14974.451132   5762.963915 -21404.813873   -482.398849  8  5  4  98       
PG20   4887.846670 -15119.239699  21131.602809    488.997350  4  4  5 122       
PG21  -8794.055662 -13583.629106  21846.628608   -473.111140  8  8  5 114       
PG22  -9224.479596  13540.206321 -20671.266255   -147.167031  4  5  5 129       
PG23    924.935839  25645.772944  -5647.233700   -217.944086  7  8  6  98       
PG24  11879.939098 -21229.504366 -10433.531365    -40.597750  8  6  2  94       
PG25  -8893.985289 -16712.700033 -18873.076346   -468.845564  7  6     93       
PG26 -25197.534525  -2369.605648   8222.444102   -403.901197  1  8  7 127       
PG27 -13208.674449   8160.730487  21457.479099    334.407971  7  4  3  80       
PG28  21258.367558  14593.345503   6973.890231    652.102637  7  7  3  95       
PG29  -3519.661921 -26331.395599    242.985119    553.937226 10  9  4  75       
PG30  14533.367199   7810.930709  20848.173704    136.122847  4  6  3  93       
PG31 -21581.996982   3842.711475 -15212.346842    170.352193  5  5  5 130       
PG32 -15429.686878 -11185.270661 -18497.784174   -510.277066  7  8  8 101       
EOF
